1 29155U 06018A   12044.33650699 -.00000260  00000-0  10000-3 0  9509
2 29155 000.4282 080.6394 0002357 316.4112 152.2121 01.00267475 20991